GLOBALSTAR M023 [+]     
1 25621U 99004A   24080.08430017 -.00000067  00000+0  20350-3 0  9991
2 25621  52.0139 356.1368 0009922 200.4603 263.7375 12.62449585158460
GLOBALSTAR M040 [-]     
1 25622U 99004B   24079.18041616 -.00000067  00000+0  20485-3 0  9993
2 25622  51.9948   2.3751 0001176  94.9272  52.4920 12.61969181157808
GLOBALSTAR M036 [-]     
1 25623U 99004C   24079.91884223  .00000005  00000+0  12854-2 0  9995
2 25623  52.0006 357.6337 0011093 261.4976 175.8871 11.86563829125033
GLOBALSTAR M038 [-]     
1 25624U 99004D   24079.80562049 -.00000055  00000+0  32863-3 0  9992
2 25624  51.9973 300.1046 0001808 160.4854 325.7136 12.32494881146307
GLOBALSTAR M022 [-]     
1 25649U 99012A   24079.31840338 -.00000079  00000+0  91144-4 0  9998
2 25649  52.0027  87.4178 0002415 352.2033 109.7634 12.02478799121653
GLOBALSTAR M041 [-]     
1 25650U 99012B   24079.91049171 -.00000100  00000+0 -18702-3 0  9996
2 25650  52.0034 313.4140 0002734 120.4182 239.6925 11.96656024124142
GLOBALSTAR M046 [-]     
1 25651U 99012C   24079.39296132 -.00000150  00000+0 -67395-3 0  9997
2 25651  52.0063  53.9486 0002416  65.6242 101.1468 12.09385746128636
GLOBALSTAR M037 [+]     
1 25652U 99012D   24079.95452965 -.00000041  00000+0  35169-3 0  9990
2 25652  51.9990 127.3240 0001616 248.5820 172.2005 12.62399620153957
